INTELSAT 23 (IS-23)     
1 38867U 12057A   26177.51258428 -.00000273  00000+0  00000+0 0  9996
2 38867   0.0133  22.2564 0000189 137.5255 246.3736  1.00271562 50042
FM-6                    
1 39360U 13058A   26177.50001756 -.00000005  00000+0  00000+0 0  9999
2 39360   0.0168  45.8582 0001574 134.8370 157.6329  1.00271163 46164
INTELSAT 30 (IS-30)     
1 40271U 14062A   26177.50417758 -.00000140  00000+0  00000+0 0  9991
2 40271   0.0239  49.0971 0001635 345.9718 326.0110  1.00272884  6889
DIRECTV 14              
1 40333U 14078B   26177.57470144 -.00000114  00000+0  00000+0 0  9993
2 40333   0.0108   9.7786 0000286  22.5688 350.0070  1.00270914 42137
DIRECTV 15              
1 40663U 15026A   26177.64522778 -.00000091  00000+0  00000+0 0  9996
2 40663   0.0170  58.3843 0000556 346.9897 358.7982  1.00270653 40552
SKY MEXICO-1            
1 40664U 15026B   26177.57877478  .00000000  00000+0  00000+0 0  9998
2 40664   0.0262   8.4191 0002624 104.4350 291.4118  1.00270089 40542
INTELSAT 34 (IS-34)     
1 40874U 15039A   26177.44078928 -.00000274  00000+0  00000+0 0  9998
2 40874   0.0077 356.9250 0000580  32.1514 348.6723  1.00271982 39722
INTELSAT 31 (IS-31)     
1 41581U 16035A   26177.57556810 -.00000139  00000+0  00000+0 0  9996
2 41581   0.0168 279.1177 0000652 356.3578 111.3752  1.00270495 36771
INTELSAT 36 (IS-36)     
1 41747U 16053A   26176.18209406 -.00000015  00000+0  00000+0 0  9995
2 41747   0.0128  20.9268 0002042 321.7510  64.7168  1.00272521 36034
INTELSAT 32E (IS-32E)   
1 41945U 17007B   26177.72838478 -.00000258  00000+0  00000+0 0  9992
2 41945   0.0157 342.8398 0000829  14.0031 137.0400  1.00271897 34325
INTELSAT 35E (IS-35E)   
1 42818U 17041A   26177.42362042  .00000000  00000+0  00000+0 0  9990
2 42818   0.0263  20.0397 0002386  76.8813 295.6435  1.00269310 32909
INTELSAT 37E (IS-37E)   
1 42950U 17059A   26177.59082152  .00000000  00000+0  00000+0 0  9995
2 42950   0.0282  25.6204 0002928  69.4889  14.3052  1.00269777 32164
AZERSPACE 2 (IS-38)     
1 43632U 18074A   26176.17741404  .00000146  00000+0  00000+0 0  9997
2 43632   0.0035  82.5969 0001586  10.3273 289.3716  1.00272596 28528
HORIZONS-3E             
1 43633U 18074B   26175.13266341 -.00000024  00000+0  00000+0 0  9991
2 43633   0.0084 244.9552 0000546  64.2971 179.8035  1.00270268 28412
AT&T T-16               
1 44333U 19034A   26177.35084676 -.00000104  00000+0  00000+0 0  9990
2 44333   0.0193  64.0948 0000406 255.6762 340.1492  1.00270048 25727
INTELSAT 39 (IS-39)     
1 44476U 19049B   26177.60642838  .00000045  00000+0  00000+0 0  9995
2 44476   0.0015  81.8783 0000904 269.3199 203.7940  1.00271168 25222
GALAXY 30 (G-30)        
1 46114U 20056C   26177.56958808  .00000000  00000+0  00000+0 0  9999
2 46114   0.0275  16.3069 0002295  77.2180 261.2035  1.00270770 21387
GALAXY 33 (G-33)        
1 54026U 22128A   26177.56802807  .00000090  00000+0  00000+0 0  9998
2 54026   0.0138  11.1488 0002053  78.5243 256.5067  1.00271461 13831
GALAXY 34 (G-34)        
1 54027U 22128B   26177.26816035  .00000071  00000+0  00000+0 0  9993
2 54027   0.0121  28.0825 0002007  73.1427 140.7009  1.00266230 14008
GALAXY 31 (G-31)        
1 54243U 22153A   26177.57036808  .00000000  00000+0  00000+0 0  9999
2 54243   0.0194  19.3840 0001640  80.2229 259.4158  1.00269791  7223
GALAXY 32 (G-32)        
1 54244U 22153B   26176.86341139 -.00000164  00000+0  00000+0 0  9999
2 54244   0.0103  23.4109 0002080  22.7250  87.6890  1.00272131 13236
GALAXY 35 (G-35)        
1 54741U 22170A   26177.57591478  .00000000  00000+0  00000+0 0  9990
2 54741   0.0193   7.9933 0002221  87.1056 293.8197  1.00269600 12984
GALAXY 36 (G-36)        
1 54742U 22170B   26177.57669478 -.00000174  00000+0  00000+0 0  9990
2 54742   0.0348 124.2630 0002866 324.5519 304.4976  1.00271586 12868
GALAXY 37 (G-37)        
1 57493U 23112A   26177.56915475  .00000059  00000+0  00000+0 0  9994
2 57493   0.0138  51.0205 0002230  41.3574 260.2093  1.00271773 10636
