OBJECT_NAME,OBJECT_ID,EPOCH,MEAN_MOTION,ECCENTRICITY,INCLINATION,RA_OF_ASC_NODE,ARG_OF_PERICENTER,MEAN_ANOMALY,EPHEMERIS_TYPE,CLASSIFICATION_TYPE,NORAD_CAT_ID,ELEMENT_SET_NO,REV_AT_EPOCH,BSTAR,MEAN_MOTION_DOT,MEAN_MOTION_DDOT
INTELSAT 23 (IS-23),2012-057A,2026-06-26T12:18:07.281792,1.00271562,.0000189,0.0133,22.2564,137.5255,246.3736,0,U,38867,999,5004,0,-.273E-5,0
FM-6,2013-058A,2026-06-26T12:00:01.517184,1.00271163,.00015741,0.0168,45.8582,134.8370,157.6329,0,U,39360,999,4616,0,-.5E-7,0
INTELSAT 30 (IS-30),2014-062A,2026-06-26T12:06:00.942912,1.00272884,.00016355,0.0239,49.0971,345.9718,326.0110,0,U,40271,999,688,0,-.14E-5,0
DIRECTV 14,2014-078B,2026-06-26T13:47:34.204416,1.00270914,.00002868,0.0108,9.7786,22.5688,350.0070,0,U,40333,999,4213,0,-.114E-5,0
DIRECTV 15,2015-026A,2026-06-26T15:29:07.680192,1.00270653,.0000556,0.0170,58.3843,346.9897,358.7982,0,U,40663,999,4055,0,-.91E-6,0
SKY MEXICO-1,2015-026B,2026-06-26T13:53:26.140992,1.00270089,.0002624,0.0262,8.4191,104.4350,291.4118,0,U,40664,999,4054,0,0,0
INTELSAT 34 (IS-34),2015-039A,2026-06-26T10:34:44.193792,1.00271982,.000058,0.0077,356.9250,32.1514,348.6723,0,U,40874,999,3972,0,-.274E-5,0
INTELSAT 31 (IS-31),2016-035A,2026-06-26T13:48:49.083840,1.00270495,.0000652,0.0168,279.1177,356.3578,111.3752,0,U,41581,999,3677,0,-.139E-5,0
INTELSAT 36 (IS-36),2016-053A,2026-06-25T04:22:12.926784,1.00272521,.00020421,0.0128,20.9268,321.7510,64.7168,0,U,41747,999,3603,0,-.15E-6,0
INTELSAT 32E (IS-32E),2017-007B,2026-06-26T17:28:52.444992,1.00271897,.0000829,0.0157,342.8398,14.0031,137.0400,0,U,41945,999,3432,0,-.258E-5,0
INTELSAT 35E (IS-35E),2017-041A,2026-06-26T10:10:00.804288,1.00269310,.00023866,0.0263,20.0397,76.8813,295.6435,0,U,42818,999,3290,0,0,0
INTELSAT 37E (IS-37E),2017-059A,2026-06-26T14:10:46.979328,1.00269777,.00029286,0.0282,25.6204,69.4889,14.3052,0,U,42950,999,3216,0,0,0
AZERSPACE 2 (IS-38),2018-074A,2026-06-25T04:15:28.573056,1.00272596,.00015866,0.0035,82.5969,10.3273,289.3716,0,U,43632,999,2852,0,.146E-5,0
HORIZONS-3E,2018-074B,2026-06-24T03:11:02.118624,1.00270268,.00005468,0.0084,244.9552,64.2971,179.8035,0,U,43633,999,2841,0,-.24E-6,0
AT&T T-16,2019-034A,2026-06-26T08:25:13.160064,1.00270048,.0000406,0.0193,64.0948,255.6762,340.1492,0,U,44333,999,2572,0,-.104E-5,0
INTELSAT 39 (IS-39),2019-049B,2026-06-26T14:33:15.412032,1.00271168,.00009044,0.0015,81.8783,269.3199,203.7940,0,U,44476,999,2522,0,.45E-6,0
GALAXY 30 (G-30),2020-056C,2026-06-26T13:40:12.410112,1.00270770,.00022953,0.0275,16.3069,77.2180,261.2035,0,U,46114,999,2138,0,0,0
GALAXY 33 (G-33),2022-128A,2026-06-26T13:37:57.625248,1.00271461,.00020537,0.0138,11.1488,78.5243,256.5067,0,U,54026,999,1383,0,.9E-6,0
GALAXY 34 (G-34),2022-128B,2026-06-26T06:26:09.054240,1.00266230,.00020077,0.0121,28.0825,73.1427,140.7009,0,U,54027,999,1400,0,.71E-6,0
GALAXY 31 (G-31),2022-153A,2026-06-26T13:41:19.802112,1.00269791,.00016409,0.0194,19.3840,80.2229,259.4158,0,U,54243,999,722,0,0,0
GALAXY 32 (G-32),2022-153B,2026-06-25T20:43:18.744096,1.00272131,.00020809,0.0103,23.4109,22.7250,87.6890,0,U,54244,999,1323,0,-.164E-5,0
GALAXY 35 (G-35),2022-170A,2026-06-26T13:49:19.036992,1.00269600,.00022211,0.0193,7.9933,87.1056,293.8197,0,U,54741,999,1298,0,0,0
GALAXY 36 (G-36),2022-170B,2026-06-26T13:50:26.428992,1.00271586,.00028665,0.0348,124.2630,324.5519,304.4976,0,U,54742,999,1286,0,-.174E-5,0
GALAXY 37 (G-37),2023-112A,2026-06-26T13:39:34.970400,1.00271773,.00022303,0.0138,51.0205,41.3574,260.2093,0,U,57493,999,1063,0,.59E-6,0
